{"fetched_at": "2026-03-10T12:39:04.751901+00:00", "count": 377, "satellites": [ {"name": "SHENZHOU-22", "tle1": "1 66645U 25272A   26069.03553595  .00026947  00000+0  31825-3 0  9992", "tle2": "2 66645  41.4664 206.0569 0006997 274.9746  85.0294 15.60677472269338", "norad_id": 66645, "group": "stations", "highlight": false}, {"name": "SOYUZ-MS 28", "tle1": "1 66664U 25275A   26069.15865510  .00009130  00000+0  17626-3 0  9990", "tle2": "2 66664  51.6324  70.0375 0007972 176.2903 183.8146 15.48557200556415", "norad_id": 66664, "group": "stations", "highlight": false}, {"name": "DUPLEX", "tle1": "1 66906U 98067XS  26069.16409277  .00038918  00000+0  54800-3 0  9994", "tle2": "2 66906  51.6294  67.0775 0002484 114.3644 245.7607 15.56246979 15202", "norad_id": 66906, "group": "stations", "highlight": false}, {"name": "ISS OBJECT XT", "tle1": "1 66907U 98067XT  26069.21962524  .00189996  00000+0  15519-2 0  9996", "tle2": "2 66907  51.6253  62.9330 0004725  80.8513 279.3019 15.69436118 15267", "norad_id": 66907, "group": "stations", "highlight": true}, {"name": "ISS OBJECT XU", "tle1": "1 66908U 98067XU  26069.21778130  .00191440  00000+0  15554-2 0  9991", "tle2": "2 66908  51.6259  62.9179 0004867  83.0820 277.0731 15.69558818 15266", "norad_id": 66908, "group": "stations", "highlight": true}, {"name": "SILVERSAT", "tle1": "1 66909U 98067XV  26069.21803307  .00249186  00000+0  17776-2 0  9996", "tle2": "2 66909  51.6252  62.1676 0005475  80.1195 280.0421 15.72479555 15278", "norad_id": 66909, "group": "stations", "highlight": false}, {"name": "ISS OBJECT XW", "tle1": "1 66910U 98067XW  26069.02360999  .00150696  00000+0  12763-2 0  9990", "tle2": "2 66910  51.6250  63.8675 0005175  86.7803 273.3786 15.68689366 15233", "norad_id": 66910, "group": "stations", "highlight": true}, {"name": "ISS OBJECT XX", "tle1": "1 66911U 98067XX  26069.15059152  .00317119  00000+0  19566-2 0  9994", "tle2": "2 66911  51.6208  61.6978 0006878  85.5905 274.5880 15.75641063 15261", "norad_id": 66911, "group": "stations", "highlight": true}, {"name": "ISS OBJECT XY", "tle1": "1 66912U 98067XY  26069.15678832  .00111888  00000+0  11613-2 0  9997", "tle2": "2 66912  51.6271  64.7737 0003229  90.6024 269.5341 15.63784753 15228", "norad_id": 66912, "group": "stations", "highlight": true}, {"name": "KNACKSAT-2", "tle1": "1 67683U 98067XZ  26068.27683825  .00041312  00000+0  68223-3 0  9997", "tle2": "2 67683  51.6309  73.9008 0009391 184.4289 175.6619 15.51788436  4727", "norad_id": 67683, "group": "stations", "highlight": false}, {"name": "GXIBA-1", "tle1": "1 67684U 98067YA  26068.31453739  .00079693  00000+0  11905-2 0  9999", "tle2": "2 67684  51.6300  73.4032 0011013 174.4815 185.6299 15.54259962  4735", "norad_id": 67684, "group": "stations", "highlight": false}, {"name": "CORAL", "tle1": "1 67685U 98067YB  26069.17385324  .00051186  00000+0  82826-3 0  9997", "tle2": "2 67685  51.6309  69.3914 0011311 184.2035 175.8861 15.52239456  4866", "norad_id": 67685, "group": "stations", "highlight": false}, {"name": "ISS OBJECT YC", "tle1": "1 67686U 98067YC  26068.26712494  .00051700  00000+0  82449-3 0  9992", "tle2": "2 67686  51.6312  73.8379 0007896 148.5060 211.6404 15.52676056  4728", "norad_id": 67686, "group": "stations", "highlight": true}, {"name": "LEOPARD", "tle1": "1 67687U 98067YD  26068.59650201  .00040393  00000+0  66276-3 0  9992", "tle2": "2 67687  51.6320  72.2870 0007827 153.8657 206.2729 15.51994489  4690", "norad_id": 67687, "group": "stations", "highlight": false}, {"name": "ISS OBJECT YE", "tle1": "1 67688U 98067YE  26069.17073764  .00058415  00000+0  93465-3 0  9995", "tle2": "2 67688  51.6311  69.3722 0007869 152.3589 207.7821 15.52532438  4780", "norad_id": 67688, "group": "stations", "highlight": true}, {"name": "CREW DRAGON 12", "tle1": "1 67796U 26031A   26069.15865510  .00009130  00000+0  17626-3 0  9998", "tle2": "2 67796  51.6324  70.0375 0007972 176.2903 183.8146 15.48557200556298", "norad_id": 67796, "group": "stations", "highlight": false}]}